STARLINK-36979          
1 67996U 26039L   26064.16668981 -.01500274  67930-3 -30434-2 0  9995
2 67996  42.9976  82.9792 0001818 268.5276 137.8449 15.98699891  2156
STARLINK-36994          
1 67997U 26039M   26064.16668981 -.01488792  67271-3 -29503-2 0  9999
2 67997  42.9976  82.9673 0001674 273.1925 137.8350 15.99112275  2156
STARLINK-36988          
1 67998U 26039N   26064.16668981 -.01492457  67481-3 -29798-2 0  9992
2 67998  42.9978  82.9711 0001772 268.0007 141.5546 15.98980071  2150
STARLINK-36926          
1 67999U 26039P   26064.16668981 -.01496929  68052-3 -29427-2 0  9995
2 67999  42.9978  82.9636 0001853 268.8415 143.7381 15.99254425  2157
STARLINK-36931          
1 68000U 26039Q   26064.16668981 -.01489677  67529-3 -29094-2 0  9999
2 68000  42.9979  82.9607 0001752 270.5293 143.2346 15.99368132  2159
STARLINK-36903          
1 68001U 26039R   26064.16668981 -.01467606  65792-3 -28447-2 0  9999
2 68001  42.9980  82.9567 0001756 269.0671 146.2956 15.99497797  2154
STARLINK-36898          
1 68002U 26039S   26064.16668981 -.01441288  63811-3 -27534-2 0  9994
2 68002  42.9979  82.9487 0001825 267.0897 151.2905 15.99747539  2151
STARLINK-36862          
1 68003U 26039T   26064.16668981 -.01465368  65968-3 -27587-2 0  9993
2 68003  42.9979  82.9417 0001750 269.5391 151.5925 16.00007235  2158
STARLINK-36888          
1 68004U 26039U   26064.16668981 -.01462943  65495-3 -28156-2 0  9998
2 68004  42.9980  82.9530 0001740 268.2480 148.5816 15.99621101  2157
STARLINK-36910          
1 68005U 26039V   26064.16668981 -.01460200  65460-3 -27669-2 0  9993
2 68005  42.9979  82.9451 0001810 269.6825 150.1588 15.99892975  2158
STARLINK-36889          
1 68006U 26039W   26064.16668981 -.01457361  65396-3 -27237-2 0  9997
2 68006  42.9979  82.9380 0001793 272.7199 149.7634 16.00132700  2151
STARLINK-36592          
1 68007U 26039X   26064.16668981 -.01453934  65198-3 -26985-2 0  9999
2 68007  42.9978  82.9351 0001802 269.0690 154.7696 16.00253032  2151
STARLINK-36911          
1 68008U 26039Y   26064.16668981 -.01408897  61601-3 -25993-2 0  9991
2 68008  42.9979  82.9313 0001778 267.8026 157.5042 16.00350003  2154
STARLINK-36956          
1 68009U 26039Z   26064.16668981 -.01436684  63955-3 -26284-2 0  9995
2 68009  42.9978  82.9277 0001687 273.1919 153.4542 16.00499852  2159
STARLINK-36953          
1 68010U 26039AA  26064.16668981 -.01441885  64567-3 -25980-2 0  9998
2 68010  42.9977  82.9199 0001708 268.3442 161.3294 16.00764623  2157
STARLINK-36991          
1 68011U 26039AB  26064.16668981 -.01439226  64446-3 -25721-2 0  9994
2 68011  42.9977  82.9164 0001799 271.5785 159.5508 16.00904550  2158
